{
  "type": "FeatureCollection",
  "features": [
    {
      "type": "Feature",
      "properties": {
        "norad_id": 33886,
        "name": "IRIDIUM 33 DEB",
        "group": "iridium-33-debris",
        "lat": 8.207782210903988,
        "lon": 70.92339907160364,
        "alt_km": 774.6340633094951,
        "timestamp": "2025-12-05T04:52:15.675499+00:00",
        "meta_object_name": "IRIDIUM 33 DEB",
        "meta_object_id": "1997-051BF",
        "meta_epoch": "2025-12-04T16:01:07.165920",
        "meta_mean_motion": 14.3603684,
        "meta_eccentricity": 0.0012079,
        "meta_inclination": 86.3832,
        "meta_ra_of_asc_node": 70.626,
        "meta_arg_of_pericenter": 272.7553,
        "meta_mean_anomaly": 208.7294,
        "meta_ephemeris_type": 0,
        "meta_classification_type": "U",
        "meta_norad_cat_id": 33886,
        "meta_element_set_no": 999,
        "meta_rev_at_epoch": 87936,
        "meta_bstar": 0.0004008,
        "meta_mean_motion_dot": 1.185e-05,
        "meta_mean_motion_ddot": 0,
        "tle_line1": "1 33886U 97051BF  25338.66744405  .00001185  00000+0  40080-3 0  9996",
        "tle_line2": "2 33886  86.3832  70.6260 0012079 272.7553 208.7294 14.36036840879361"
      },
      "geometry": {
        "type": "Point",
        "coordinates": [
          70.92339907160364,
          8.207782210903988
        ]
      }
    },
    {
      "type": "Feature",
      "properties": {
        "norad_id": 33887,
        "name": "IRIDIUM 33 DEB",
        "group": "iridium-33-debris",
        "lat": -85.41464301928711,
        "lon": -47.0395503593348,
        "alt_km": 772.3305349668126,
        "timestamp": "2025-12-05T04:52:15.675509+00:00",
        "meta_object_name": "IRIDIUM 33 DEB",
        "meta_object_id": "1997-051BG",
        "meta_epoch": "2025-12-04T02:49:23.956896",
        "meta_mean_motion": 14.37209414,
        "meta_eccentricity": 0.00040371,
        "meta_inclination": 86.3051,
        "meta_ra_of_asc_node": 7.1078,
        "meta_arg_of_pericenter": 267.9412,
        "meta_mean_anomaly": 152.9243,
        "meta_ephemeris_type": 0,
        "meta_classification_type": "U",
        "meta_norad_cat_id": 33887,
        "meta_element_set_no": 999,
        "meta_rev_at_epoch": 88041,
        "meta_bstar": 0.00026791584,
        "meta_mean_motion_dot": 8.17e-06,
        "meta_mean_motion_ddot": 0,
        "tle_line1": "1 33887U 97051BG  25338.11763839  .00000817  00000+0  26792-3 0  9994",
        "tle_line2": "2 33887  86.3051   7.1078 0004037 267.9412 152.9243 14.37209414880414"
      },
      "geometry": {
        "type": "Point",
        "coordinates": [
          -47.0395503593348,
          -85.41464301928711
        ]
      }
    },
    {
      "type": "Feature",
      "properties": {
        "norad_id": 33953,
        "name": "IRIDIUM 33 DEB",
        "group": "iridium-33-debris",
        "lat": -1.056867973075254,
        "lon": 56.98344834112056,
        "alt_km": 719.7171924448357,
        "timestamp": "2025-12-05T04:52:15.675518+00:00",
        "meta_object_name": "IRIDIUM 33 DEB",
        "meta_object_id": "1997-051BN",
        "meta_epoch": "2025-12-04T16:22:27.124032",
        "meta_mean_motion": 14.55195443,
        "meta_eccentricity": 0.0018538,
        "meta_inclination": 86.3854,
        "meta_ra_of_asc_node": 57.2761,
        "meta_arg_of_pericenter": 127.3963,
        "meta_mean_anomaly": 25.7835,
        "meta_ephemeris_type": 0,
        "meta_classification_type": "U",
        "meta_norad_cat_id": 33953,
        "meta_element_set_no": 999,
        "meta_rev_at_epoch": 88186,
        "meta_bstar": 0.003084,
        "meta_mean_motion_dot": 0.00013398,
        "meta_mean_motion_ddot": 0,
        "tle_line1": "1 33953U 97051BN  25338.68225838  .00013398  00000+0  30840-2 0  9998",
        "tle_line2": "2 33953  86.3854  57.2761 0018538 127.3963  25.7835 14.55195443881865"
      },
      "geometry": {
        "type": "Point",
        "coordinates": [
          56.98344834112056,
          -1.056867973075254
        ]
      }
    },
    {
      "type": "Feature",
      "properties": {
        "norad_id": 33960,
        "name": "IRIDIUM 33 DEB",
        "group": "iridium-33-debris",
        "lat": 80.39087064093854,
        "lon": -44.16167557852818,
        "alt_km": 602.6440942386907,
        "timestamp": "2025-12-05T04:52:15.675528+00:00",
        "meta_object_name": "IRIDIUM 33 DEB",
        "meta_object_id": "1997-051BV",
        "meta_epoch": "2025-12-04T08:00:50.814144",
        "meta_mean_motion": 14.84493479,
        "meta_eccentricity": 0.0007044,
        "meta_inclination": 86.2531,
        "meta_ra_of_asc_node": 293.4746,
        "meta_arg_of_pericenter": 74.0008,
        "meta_mean_anomaly": 45.7445,
        "meta_ephemeris_type": 0,
        "meta_classification_type": "U",
        "meta_norad_cat_id": 33960,
        "meta_element_set_no": 999,
        "meta_rev_at_epoch": 88742,
        "meta_bstar": 0.0078776,
        "meta_mean_motion_dot": 0.00066968,
        "meta_mean_motion_ddot": 0,
        "tle_line1": "1 33960U 97051BV  25338.33392146  .00066968  00000+0  78776-2 0  9996",
        "tle_line2": "2 33960  86.2531 293.4746 0007044  74.0008  45.7445 14.84493479887428"
      },
      "geometry": {
        "type": "Point",
        "coordinates": [
          -44.16167557852818,
          80.39087064093854
        ]
      }
    },
    {
      "type": "Feature",
      "properties": {
        "norad_id": 33966,
        "name": "IRIDIUM 33 DEB",
        "group": "iridium-33-debris",
        "lat": -79.72452774660087,
        "lon": 28.9022083966867,
        "alt_km": 732.574119740987,
        "timestamp": "2025-12-05T04:52:15.675538+00:00",
        "meta_object_name": "IRIDIUM 33 DEB",
        "meta_object_id": "1997-051CB",
        "meta_epoch": "2025-12-04T16:31:44.023008",
        "meta_mean_motion": 14.49541342,
        "meta_eccentricity": 0.0006513,
        "meta_inclination": 86.3934,
        "meta_ra_of_asc_node": 49.4821,
        "meta_arg_of_pericenter": 216.9003,
        "meta_mean_anomaly": 260.834,
        "meta_ephemeris_type": 0,
        "meta_classification_type": "U",
        "meta_norad_cat_id": 33966,
        "meta_element_set_no": 999,
        "meta_rev_at_epoch": 88325,
        "meta_bstar": 0.0013104,
        "meta_mean_motion_dot": 5.045e-05,
        "meta_mean_motion_ddot": 0,
        "tle_line1": "1 33966U 97051CB  25338.68870397  .00005045  00000+0  13104-2 0  9992",
        "tle_line2": "2 33966  86.3934  49.4821 0006513 216.9003 260.8340 14.49541342883252"
      },
      "geometry": {
        "type": "Point",
        "coordinates": [
          28.9022083966867,
          -79.72452774660087
        ]
      }
    },
    {
      "type": "Feature",
      "properties": {
        "norad_id": 34071,
        "name": "IRIDIUM 33 DEB",
        "group": "iridium-33-debris",
        "lat": -10.669224758491218,
        "lon": 20.41478340675184,
        "alt_km": 736.9674947539697,
        "timestamp": "2025-12-05T04:52:15.675547+00:00",
        "meta_object_name": "IRIDIUM 33 DEB",
        "meta_object_id": "1997-051CE",
        "meta_epoch": "2025-12-04T15:39:54.142272",
        "meta_mean_motion": 14.49409257,
        "meta_eccentricity": 0.0009544,
        "meta_inclination": 86.3464,
        "meta_ra_of_asc_node": 21.3435,
        "meta_arg_of_pericenter": 129.5032,
        "meta_mean_anomaly": 230.7017,
        "meta_ephemeris_type": 0,
        "meta_classification_type": "U",
        "meta_norad_cat_id": 34071,
        "meta_element_set_no": 999,
        "meta_rev_at_epoch": 88217,
        "meta_bstar": 0.0013812,
        "meta_mean_motion_dot": 5.304e-05,
        "meta_mean_motion_ddot": 0,
        "tle_line1": "1 34071U 97051CE  25338.65270998  .00005304  00000+0  13812-2 0  9992",
        "tle_line2": "2 34071  86.3464  21.3435 0009544 129.5032 230.7017 14.49409257882171"
      },
      "geometry": {
        "type": "Point",
        "coordinates": [
          20.41478340675184,
          -10.669224758491218
        ]
      }
    },
    {
      "type": "Feature",
      "properties": {
        "norad_id": 34077,
        "name": "IRIDIUM 33 DEB",
        "group": "iridium-33-debris",
        "lat": 42.61333958795782,
        "lon": -128.50505402422777,
        "alt_km": 672.6852715310388,
        "timestamp": "2025-12-05T04:52:15.675556+00:00",
        "meta_object_name": "IRIDIUM 33 DEB",
        "meta_object_id": "1997-051CL",
        "meta_epoch": "2025-12-04T17:18:42.892128",
        "meta_mean_motion": 14.64636283,
        "meta_eccentricity": 0.001086,
        "meta_inclination": 86.3874,
        "meta_ra_of_asc_node": 55.0389,
        "meta_arg_of_pericenter": 64.6167,
        "meta_mean_anomaly": 54.6109,
        "meta_ephemeris_type": 0,
        "meta_classification_type": "U",
        "meta_norad_cat_id": 34077,
        "meta_element_set_no": 999,
        "meta_rev_at_epoch": 88215,
        "meta_bstar": 0.0042105,
        "meta_mean_motion_dot": 0.00022464,
        "meta_mean_motion_ddot": 0,
        "tle_line1": "1 34077U 97051CL  25338.72132977  .00022464  00000+0  42105-2 0  9993",
        "tle_line2": "2 34077  86.3874  55.0389 0010860  64.6167  54.6109 14.64636283882156"
      },
      "geometry": {
        "type": "Point",
        "coordinates": [
          -128.50505402422777,
          42.61333958795782
        ]
      }
    }
  ]
}